[{"OBJECT_NAME":"STARLINK-31049","OBJECT_ID":"2023-192N","EPOCH":"2026-03-09T22:56:08.091744","MEAN_MOTION":15.30186381,"ECCENTRICITY":0.00012661,"INCLINATION":53.1615,"RA_OF_ASC_NODE":61.6761,"ARG_OF_PERICENTER":96.3479,"MEAN_ANOMALY":263.7666,"EPHEMERIS_TYPE":0,"CLASSIFICATION_TYPE":"U","NORAD_CAT_ID":58543,"ELEMENT_SET_NO":999,"REV_AT_EPOCH":12602,"BSTAR":3.008332e-5,"MEAN_MOTION_DOT":5.32e-6,"MEAN_MOTION_DDOT":0},{"OBJECT_NAME":"OBJECT D","OBJECT_ID":"2024-174D","EPOCH":"2026-03-10T00:15:10.483200","MEAN_MOTION":15.28039787,"ECCENTRICITY":0.00110644,"INCLINATION":97.4441,"RA_OF_ASC_NODE":80.4677,"ARG_OF_PERICENTER":212.9968,"MEAN_ANOMALY":147.0582,"EPHEMERIS_TYPE":0,"CLASSIFICATION_TYPE":"U","NORAD_CAT_ID":61241,"ELEMENT_SET_NO":999,"REV_AT_EPOCH":8076,"BSTAR":0.00036340099,"MEAN_MOTION_DOT":9.884e-5,"MEAN_MOTION_DDOT":0}]
